{"type": "FeatureCollection", "features": [ {"type": "Feature", "properties": {"norad_id": 38552, "name": "METEOSAT-10 (MSG-3)", "group": "weather", "lat": 0.12472365398051385, "lon": -120.1831570458458, "alt_km": 35784.48436030553, "timestamp": "2025-12-23T09:49:06.719136+00:00", "meta": {"OBJECT_NAME": "METEOSAT-10 (MSG-3)", "OBJECT_ID": "2012-035B", "EPOCH": "2025-12-22T08:01:52.620384", "MEAN_MOTION": 1.00276829, "ECCENTRICITY": 7.196e-05, "INCLINATION": 4.2497, "RA_OF_ASC_NODE": 61.6967, "ARG_OF_PERICENTER": 266.0404, "MEAN_ANOMALY": 244.1977, "EPHEMERIS_TYPE": 0, "CLASSIFICATION_TYPE": "U", "NORAD_CAT_ID": 38552, "ELEMENT_SET_NO": 999, "REV_AT_EPOCH": 4908, "BSTAR": 0, "MEAN_MOTION_DOT": 1.6e-07, "MEAN_MOTION_DDOT": 0}, "tle": {"line1": "1 38552U 12035B   25356.33463681  .00000016  00000+0  00000+0 0  9994", "line2": "2 38552   4.2497  61.6967 0000719 266.0404 244.1977  1.00276829 49085"}}, "geometry": {"type": "Point", "coordinates": [-120.1831570458458, 0.12472365398051385]}}, {"type": "Feature", "properties": {"norad_id": 38771, "name": "METOP-B", "group": "weather", "lat": -65.59252663921158, "lon": 66.85489092227802, "alt_km": 830.0765346627195, "timestamp": "2025-12-23T09:49:06.719147+00:00", "meta": {"OBJECT_NAME": "METOP-B", "OBJECT_ID": "2012-049A", "EPOCH": "2025-12-22T22:18:28.812096", "MEAN_MOTION": 14.21412182, "ECCENTRICITY": 0.00032233, "INCLINATION": 98.6784, "RA_OF_ASC_NODE": 46.7148, "ARG_OF_PERICENTER": 122.7046, "MEAN_ANOMALY": 237.4442, "EPHEMERIS_TYPE": 0, "CLASSIFICATION_TYPE": "U", "NORAD_CAT_ID": 38771, "ELEMENT_SET_NO": 999, "REV_AT_EPOCH": 68822, "BSTAR": 8.7303164e-05, "MEAN_MOTION_DOT": 1.47e-06, "MEAN_MOTION_DDOT": 0}, "tle": {"line1": "1 38771U 12049A   25356.92950014  .00000147  00000+0  87303-4 0  9999", "line2": "2 38771  98.6784  46.7148 0003223 122.7046 237.4442 14.21412182688220"}}, "geometry": {"type": "Point", "coordinates": [66.85489092227802, -65.59252663921158]}}, {"type": "Feature", "properties": {"norad_id": 39216, "name": "INSAT-3D", "group": "weather", "lat": -1.427351611436224, "lon": 9.014205838426186, "alt_km": 35790.24188432744, "timestamp": "2025-12-23T09:49:06.719159+00:00", "meta": {"OBJECT_NAME": "INSAT-3D", "OBJECT_ID": "2013-038B", "EPOCH": "2025-12-22T18:54:58.881600", "MEAN_MOTION": 1.00275767, "ECCENTRICITY": 0.00018373, "INCLINATION": 1.4692, "RA_OF_ASC_NODE": 84.8853, "ARG_OF_PERICENTER": 153.7134, "MEAN_ANOMALY": 266.2463, "EPHEMERIS_TYPE": 0, "CLASSIFICATION_TYPE": "U", "NORAD_CAT_ID": 39216, "ELEMENT_SET_NO": 999, "REV_AT_EPOCH": 4531, "BSTAR": 0, "MEAN_MOTION_DOT": -3.18e-06, "MEAN_MOTION_DDOT": 0}, "tle": {"line1": "1 39216U 13038B   25356.78818150 -.00000318  00000+0  00000+0 0  9996", "line2": "2 39216   1.4692  84.8853 0001837 153.7134 266.2463  1.00275767 45311"}}, "geometry": {"type": "Point", "coordinates": [9.014205838426186, -1.427351611436224]}}, {"type": "Feature", "properties": {"norad_id": 39260, "name": "FENGYUN 3C", "group": "weather", "lat": -38.86633455599902, "lon": -18.528350011717386, "alt_km": 856.0972253360969, "timestamp": "2025-12-23T09:49:06.719171+00:00", "meta": {"OBJECT_NAME": "FENGYUN 3C", "OBJECT_ID": "2013-052A", "EPOCH": "2025-12-22T22:07:51.816000", "MEAN_MOTION": 14.15699239, "ECCENTRICITY": 0.00148404, "INCLINATION": 98.4775, "RA_OF_ASC_NODE": 334.1048, "ARG_OF_PERICENTER": 166.5632, "MEAN_ANOMALY": 193.5941, "EPHEMERIS_TYPE": 0, "CLASSIFICATION_TYPE": "U", "NORAD_CAT_ID": 39260, "ELEMENT_SET_NO": 999, "REV_AT_EPOCH": 63362, "BSTAR": 7.126546e-05, "MEAN_MOTION_DOT": 9.9e-07, "MEAN_MOTION_DDOT": 0}, "tle": {"line1": "1 39260U 13052A   25356.92212750  .00000099  00000+0  71265-4 0  9992", "line2": "2 39260  98.4775 334.1048 0014840 166.5632 193.5941 14.15699239633622"}}, "geometry": {"type": "Point", "coordinates": [-18.528350011717386, -38.86633455599902]}}, {"type": "Feature", "properties": {"norad_id": 40069, "name": "METEOR-M 2", "group": "weather", "lat": 19.402852597862868, "lon": 157.60063011201558, "alt_km": 816.9364876625459, "timestamp": "2025-12-23T09:49:06.719182+00:00", "meta": {"OBJECT_NAME": "METEOR-M 2", "OBJECT_ID": "2014-037A", "EPOCH": "2025-12-22T22:55:48.771840", "MEAN_MOTION": 14.21389149, "ECCENTRICITY": 0.00055219, "INCLINATION": 98.491, "RA_OF_ASC_NODE": 334.1483, "ARG_OF_PERICENTER": 177.4682, "MEAN_ANOMALY": 182.6525, "EPHEMERIS_TYPE": 0, "CLASSIFICATION_TYPE": "U", "NORAD_CAT_ID": 40069, "ELEMENT_SET_NO": 999, "REV_AT_EPOCH": 59428, "BSTAR": -6.8363468e-05, "MEAN_MOTION_DOT": -1.91e-06, "MEAN_MOTION_DDOT": 0}, "tle": {"line1": "1 40069U 14037A   25356.95542560 -.00000191  00000+0 -68363-4 0  9993", "line2": "2 40069  98.4910 334.1483 0005521 177.4682 182.6525 14.21389149594285"}}, "geometry": {"type": "Point", "coordinates": [157.60063011201558, 19.402852597862868]}}, {"type": "Feature", "properties": {"norad_id": 40267, "name": "HIMAWARI-8", "group": "weather", "lat": 0.02391803043230786, "lon": 20.1467752402999, "alt_km": 35785.0940018961, "timestamp": "2025-12-23T09:49:06.719194+00:00", "meta": {"OBJECT_NAME": "HIMAWARI-8", "OBJECT_ID": "2014-060A", "EPOCH": "2025-12-22T15:32:48.240384", "MEAN_MOTION": 1.00272386, "ECCENTRICITY": 8.095e-05, "INCLINATION": 0.0463, "RA_OF_ASC_NODE": 219.1535, "ARG_OF_PERICENTER": 86.467, "MEAN_ANOMALY": 159.6952, "EPHEMERIS_TYPE": 0, "CLASSIFICATION_TYPE": "U", "NORAD_CAT_ID": 40267, "ELEMENT_SET_NO": 999, "REV_AT_EPOCH": 4099, "BSTAR": 0, "MEAN_MOTION_DOT": -2.54e-06, "MEAN_MOTION_DDOT": 0}, "tle": {"line1": "1 40267U 14060A   25356.64778056 -.00000254  00000+0  00000+0 0  9994", "line2": "2 40267   0.0463 219.1535 0000809  86.4670 159.6952  1.00272386 40996"}}, "geometry": {"type": "Point", "coordinates": [20.1467752402999, 0.02391803043230786]}}, {"type": "Feature", "properties": {"norad_id": 40367, "name": "FENGYUN 2G", "group": "weather", "lat": -5.177589535532618, "lon": -21.360072426274243, "alt_km": 35784.56716961557, "timestamp": "2025-12-23T09:49:06.719206+00:00", "meta": {"OBJECT_NAME": "FENGYUN 2G", "OBJECT_ID": "2014-090A", "EPOCH": "2025-12-22T18:46:22.206144", "MEAN_MOTION": 1.00260244, "ECCENTRICITY": 0.00026548, "INCLINATION": 5.192, "RA_OF_ASC_NODE": 74.9826, "ARG_OF_PERICENTER": 203.0089, "MEAN_ANOMALY": 194.3715, "EPHEMERIS_TYPE": 0, "CLASSIFICATION_TYPE": "U", "NORAD_CAT_ID": 40367, "ELEMENT_SET_NO": 999, "REV_AT_EPOCH": 4023, "BSTAR": 0, "MEAN_MOTION_DOT": -2.79e-06, "MEAN_MOTION_DDOT": 0}, "tle": {"line1": "1 40367U 14090A   25356.78220146 -.00000279  00000+0  00000+0 0  9992", "line2": "2 40367   5.1920  74.9826 0002654 203.0089 194.3715  1.00260244 40232"}}, "geometry": {"type": "Point", "coordinates": [-21.360072426274243, -5.177589535532618]}}, {"type": "Feature", "properties": {"norad_id": 40732, "name": "METEOSAT-11 (MSG-4)", "group": "weather", "lat": 0.14012285142621822, "lon": -111.33017934287564, "alt_km": 35783.829174396735, "timestamp": "2025-12-23T09:49:06.719219+00:00", "meta": {"OBJECT_NAME": "METEOSAT-11 (MSG-4)", "OBJECT_ID": "2015-034A", "EPOCH": "2025-12-22T18:20:39.668064", "MEAN_MOTION": 1.0027063, "ECCENTRICITY": 7.694e-05, "INCLINATION": 2.7614, "RA_OF_ASC_NODE": 71.9741, "ARG_OF_PERICENTER": 137.3784, "MEAN_ANOMALY": 166.5656, "EPHEMERIS_TYPE": 0, "CLASSIFICATION_TYPE": "U", "NORAD_CAT_ID": 40732, "ELEMENT_SET_NO": 999, "REV_AT_EPOCH": 544, "BSTAR": 0, "MEAN_MOTION_DOT": 8.1e-07, "MEAN_MOTION_DDOT": 0}, "tle": {"line1": "1 40732U 15034A   25356.76434801  .00000081  00000+0  00000+0 0  9990", "line2": "2 40732   2.7614  71.9741 0000769 137.3784 166.5656  1.00270630  5449"}}, "geometry": {"type": "Point", "coordinates": [-111.33017934287564, 0.14012285142621822]}}, {"type": "Feature", "properties": {"norad_id": 41105, "name": "ELEKTRO-L 2", "group": "weather", "lat": 2.8955525098839234, "lon": -134.88420487527094, "alt_km": 35777.353418491264, "timestamp": "2025-12-23T09:49:06.719231+00:00", "meta": {"OBJECT_NAME": "ELEKTRO-L 2", "OBJECT_ID": "2015-074A", "EPOCH": "2025-12-22T21:39:28.130688", "MEAN_MOTION": 1.00272375, "ECCENTRICITY": 0.00035003, "INCLINATION": 6.2496, "RA_OF_ASC_NODE": 72.7074, "ARG_OF_PERICENTER": 208.7357, "MEAN_ANOMALY": 120.6538, "EPHEMERIS_TYPE": 0, "CLASSIFICATION_TYPE": "U", "NORAD_CAT_ID": 41105, "ELEMENT_SET_NO": 999, "REV_AT_EPOCH": 3673, "BSTAR": 0, "MEAN_MOTION_DOT": -9.9e-07, "MEAN_MOTION_DDOT": 0}, "tle": {"line1": "1 41105U 15074A   25356.90240892 -.00000099  00000+0  00000+0 0  9990", "line2": "2 41105   6.2496  72.7074 0003500 208.7357 120.6538  1.00272375 36738"}}, "geometry": {"type": "Point", "coordinates": [-134.88420487527094, 2.8955525098839234]}}, {"type": "Feature", "properties": {"norad_id": 41752, "name": "INSAT-3DR", "group": "weather", "lat": -0.10378929989588045, "lon": -46.43056720137238, "alt_km": 35741.26777325414, "timestamp": "2025-12-23T09:49:06.719243+00:00", "meta": {"OBJECT_NAME": "INSAT-3DR", "OBJECT_ID": "2016-054A", "EPOCH": "2025-12-22T22:04:33.229056", "MEAN_MOTION": 1.00271553, "ECCENTRICITY": 0.00141985, "INCLINATION": 0.116, "RA_OF_ASC_NODE": 86.2345, "ARG_OF_PERICENTER": 185.5142, "MEAN_ANOMALY": 225.097, "EPHEMERIS_TYPE": 0, "CLASSIFICATION_TYPE": "U", "NORAD_CAT_ID": 41752, "ELEMENT_SET_NO": 999, "REV_AT_EPOCH": 3405, "BSTAR": 0, "MEAN_MOTION_DOT": -5.6e-07, "MEAN_MOTION_DDOT": 0}, "tle": {"line1": "1 41752U 16054A   25356.91982904 -.00000056  00000+0  00000+0 0  9998", "line2": "2 41752   0.1160  86.2345 0014198 185.5142 225.0970  1.00271553 34057"}}, "geometry": {"type": "Point", "coordinates": [-46.43056720137238, -0.10378929989588045]}}]}